[{"OBJECT_NAME":"STARLINK-2143","OBJECT_ID":"2021-017M","EPOCH":"2026-02-11T22:00:01.999584","MEAN_MOTION":15.27228179,"ECCENTRICITY":0.00016115,"INCLINATION":53.1464,"RA_OF_ASC_NODE":336.3917,"ARG_OF_PERICENTER":99.929,"MEAN_ANOMALY":69.8997,"EPHEMERIS_TYPE":0,"CLASSIFICATION_TYPE":"U","NORAD_CAT_ID":47733,"ELEMENT_SET_NO":999,"REV_AT_EPOCH":573,"BSTAR":0.050983129,"MEAN_MOTION_DOT":0.01509913,"MEAN_MOTION_DDOT":0},{"OBJECT_NAME":"STARLINK-2144","OBJECT_ID":"2021-017N","EPOCH":"2026-02-11T22:52:02.606880","MEAN_MOTION":15.30197309,"ECCENTRICITY":0.00013873,"INCLINATION":53.1634,"RA_OF_ASC_NODE":323.4226,"ARG_OF_PERICENTER":106.3908,"MEAN_ANOMALY":253.7245,"EPHEMERIS_TYPE":0,"CLASSIFICATION_TYPE":"U","NORAD_CAT_ID":47734,"ELEMENT_SET_NO":999,"REV_AT_EPOCH":27392,"BSTAR":7.5567395e-5,"MEAN_MOTION_DOT":1.879e-5,"MEAN_MOTION_DDOT":0},{"OBJECT_NAME":"STARLINK-2147","OBJECT_ID":"2021-017Q","EPOCH":"2026-02-11T21:36:12.944448","MEAN_MOTION":15.06422989,"ECCENTRICITY":0.00011226,"INCLINATION":53.0532,"RA_OF_ASC_NODE":317.3895,"ARG_OF_PERICENTER":99.6984,"MEAN_ANOMALY":260.4132,"EPHEMERIS_TYPE":0,"CLASSIFICATION_TYPE":"U","NORAD_CAT_ID":47736,"ELEMENT_SET_NO":999,"REV_AT_EPOCH":27403,"BSTAR":0.00067255634,"MEAN_MOTION_DOT":9.757e-5,"MEAN_MOTION_DDOT":0},{"OBJECT_NAME":"STARLINK-2150","OBJECT_ID":"2021-017T","EPOCH":"2026-02-11T22:00:01.999584","MEAN_MOTION":15.30205091,"ECCENTRICITY":0.00013983,"INCLINATION":53.1607,"RA_OF_ASC_NODE":338.9427,"ARG_OF_PERICENTER":96.8538,"MEAN_ANOMALY":75.2556,"EPHEMERIS_TYPE":0,"CLASSIFICATION_TYPE":"U","NORAD_CAT_ID":47739,"ELEMENT_SET_NO":999,"REV_AT_EPOCH":578,"BSTAR":-2.169722e-5,"MEAN_MOTION_DOT":-1.002e-5,"MEAN_MOTION_DDOT":0},{"OBJECT_NAME":"STARLINK-2156","OBJECT_ID":"2021-017W","EPOCH":"2026-02-11T22:53:44.967552","MEAN_MOTION":15.30202305,"ECCENTRICITY":0.00014772,"INCLINATION":53.159,"RA_OF_ASC_NODE":313.7201,"ARG_OF_PERICENTER":97.8842,"MEAN_ANOMALY":262.2327,"EPHEMERIS_TYPE":0,"CLASSIFICATION_TYPE":"U","NORAD_CAT_ID":47742,"ELEMENT_SET_NO":999,"REV_AT_EPOCH":27409,"BSTAR":0.00049183039,"MEAN_MOTION_DOT":0.00014236,"MEAN_MOTION_DDOT":0},{"OBJECT_NAME":"STARLINK-2159","OBJECT_ID":"2021-017Z","EPOCH":"2026-02-10T01:41:06.885312","MEAN_MOTION":15.31023669,"ECCENTRICITY":0.00013139,"INCLINATION":53.1616,"RA_OF_ASC_NODE":332.9028,"ARG_OF_PERICENTER":83.2607,"MEAN_ANOMALY":276.8544,"EPHEMERIS_TYPE":0,"CLASSIFICATION_TYPE":"U","NORAD_CAT_ID":47745,"ELEMENT_SET_NO":999,"REV_AT_EPOCH":27360,"BSTAR":0.00020539415,"MEAN_MOTION_DOT":5.883e-5,"MEAN_MOTION_DDOT":0},{"OBJECT_NAME":"STARLINK-2160","OBJECT_ID":"2021-017AA","EPOCH":"2026-02-11T22:03:35.067168","MEAN_MOTION":15.30193583,"ECCENTRICITY":0.00011584,"INCLINATION":53.1593,"RA_OF_ASC_NODE":323.9417,"ARG_OF_PERICENTER":109.0593,"MEAN_ANOMALY":251.0533,"EPHEMERIS_TYPE":0,"CLASSIFICATION_TYPE":"U","NORAD_CAT_ID":47746,"ELEMENT_SET_NO":999,"REV_AT_EPOCH":27388,"BSTAR":0.00014023473,"MEAN_MOTION_DOT":3.796e-5,"MEAN_MOTION_DDOT":0},{"OBJECT_NAME":"STARLINK-2161","OBJECT_ID":"2021-017AB","EPOCH":"2026-02-11T22:44:34.215936","MEAN_MOTION":15.30185415,"ECCENTRICITY":0.00014212,"INCLINATION":53.1603,"RA_OF_ASC_NODE":313.4601,"ARG_OF_PERICENTER":107.971,"MEAN_ANOMALY":252.1445,"EPHEMERIS_TYPE":0,"CLASSIFICATION_TYPE":"U","NORAD_CAT_ID":47747,"ELEMENT_SET_NO":999,"REV_AT_EPOCH":27407,"BSTAR":-0.00014115583,"MEAN_MOTION_DOT":-4.535e-5,"MEAN_MOTION_DDOT":0},{"OBJECT_NAME":"STARLINK-2162","OBJECT_ID":"2021-017AC","EPOCH":"2026-02-11T21:36:13.556160","MEAN_MOTION":15.30190552,"ECCENTRICITY":0.00013881,"INCLINATION":53.1589,"RA_OF_ASC_NODE":313.296,"ARG_OF_PERICENTER":105.9206,"MEAN_ANOMALY":254.1948,"EPHEMERIS_TYPE":0,"CLASSIFICATION_TYPE":"U","NORAD_CAT_ID":47748,"ELEMENT_SET_NO":999,"REV_AT_EPOCH":27404,"BSTAR":0.00012210205,"MEAN_MOTION_DOT":3.258e-5,"MEAN_MOTION_DDOT":0},{"OBJECT_NAME":"STARLINK-2163","OBJECT_ID":"2021-017AD","EPOCH":"2026-02-11T22:34:36.553440","MEAN_MOTION":15.31047679,"ECCENTRICITY":0.00011691,"INCLINATION":53.1618,"RA_OF_ASC_NODE":314.0064,"ARG_OF_PERICENTER":104.9819,"MEAN_ANOMALY":255.1312,"EPHEMERIS_TYPE":0,"CLASSIFICATION_TYPE":"U","NORAD_CAT_ID":47749,"ELEMENT_SET_NO":999,"REV_AT_EPOCH":27403,"BSTAR":0.00031219452,"MEAN_MOTION_DOT":9.142e-5,"MEAN_MOTION_DDOT":0},{"OBJECT_NAME":"STARLINK-2164","OBJECT_ID":"2021-017AE","EPOCH":"2026-02-11T21:28:38.653248","MEAN_MOTION":15.30209815,"ECCENTRICITY":0.00012168,"INCLINATION":53.1595,"RA_OF_ASC_NODE":313.3363,"ARG_OF_PERICENTER":105.1363,"MEAN_ANOMALY":254.9773,"EPHEMERIS_TYPE":0,"CLASSIFICATION_TYPE":"U","NORAD_CAT_ID":47750,"ELEMENT_SET_NO":999,"REV_AT_EPOCH":27404,"BSTAR":0.00026498845,"MEAN_MOTION_DOT":7.499e-5,"MEAN_MOTION_DDOT":0},{"OBJECT_NAME":"STARLINK-2169","OBJECT_ID":"2021-017AG","EPOCH":"2026-02-11T22:00:01.999584","MEAN_MOTION":15.12103577,"ECCENTRICITY":0.00012881,"INCLINATION":53.0775,"RA_OF_ASC_NODE":322.2045,"ARG_OF_PERICENTER":98.3596,"MEAN_ANOMALY":7.5906,"EPHEMERIS_TYPE":0,"CLASSIFICATION_TYPE":"U","NORAD_CAT_ID":47752,"ELEMENT_SET_NO":999,"REV_AT_EPOCH":578,"BSTAR":0.00073262871,"MEAN_MOTION_DOT":0.00012485,"MEAN_MOTION_DDOT":0},{"OBJECT_NAME":"STARLINK-2170","OBJECT_ID":"2021-017AH","EPOCH":"2026-02-11T04:30:42.902784","MEAN_MOTION":15.30191143,"ECCENTRICITY":9.5e-5,"INCLINATION":53.1606,"RA_OF_ASC_NODE":326.9984,"ARG_OF_PERICENTER":85.2609,"MEAN_ANOMALY":274.8501,"EPHEMERIS_TYPE":0,"CLASSIFICATION_TYPE":"U","NORAD_CAT_ID":47753,"ELEMENT_SET_NO":999,"REV_AT_EPOCH":27383,"BSTAR":3.644311e-6,"MEAN_MOTION_DOT":-2.51e-6,"MEAN_MOTION_DDOT":0},{"OBJECT_NAME":"STARLINK-2171","OBJECT_ID":"2021-017AJ","EPOCH":"2026-02-11T22:00:01.999584","MEAN_MOTION":15.63728435,"ECCENTRICITY":0.00092464,"INCLINATION":53.0461,"RA_OF_ASC_NODE":295.5101,"ARG_OF_PERICENTER":90.1709,"MEAN_ANOMALY":225.4746,"EPHEMERIS_TYPE":0,"CLASSIFICATION_TYPE":"U","NORAD_CAT_ID":47754,"ELEMENT_SET_NO":999,"REV_AT_EPOCH":592,"BSTAR":0.0013438429,"MEAN_MOTION_DOT":0.0012959,"MEAN_MOTION_DDOT":0},{"OBJECT_NAME":"STARLINK-2178","OBJECT_ID":"2021-017AQ","EPOCH":"2026-02-11T22:00:01.999584","MEAN_MOTION":15.26545127,"ECCENTRICITY":0.00016246,"INCLINATION":53.1449,"RA_OF_ASC_NODE":336.3835,"ARG_OF_PERICENTER":98.7108,"MEAN_ANOMALY":316.8848,"EPHEMERIS_TYPE":0,"CLASSIFICATION_TYPE":"U","NORAD_CAT_ID":47760,"ELEMENT_SET_NO":999,"REV_AT_EPOCH":577,"BSTAR":0.025696829,"MEAN_MOTION_DOT":0.00731008,"MEAN_MOTION_DDOT":0},{"OBJECT_NAME":"STARLINK-2180","OBJECT_ID":"2021-017AS","EPOCH":"2026-02-11T22:06:42.268320","MEAN_MOTION":15.3020416,"ECCENTRICITY":0.00014746,"INCLINATION":53.1613,"RA_OF_ASC_NODE":339.002,"ARG_OF_PERICENTER":62.1686,"MEAN_ANOMALY":297.9464,"EPHEMERIS_TYPE":0,"CLASSIFICATION_TYPE":"U","NORAD_CAT_ID":47762,"ELEMENT_SET_NO":999,"REV_AT_EPOCH":27370,"BSTAR":0.00029684654,"MEAN_MOTION_DOT":8.444e-5,"MEAN_MOTION_DDOT":0}]
