STARLINK-2143           
1 47733U 21017M   26042.91668981  .01509913  00000+0  50983-1 0  9990
2 47733  53.1464 336.3917 0001611  99.9290  69.8997 15.27228179  5735
STARLINK-2144           
1 47734U 21017N   26042.95280795  .00001879  00000+0  75567-4 0  9993
2 47734  53.1634 323.4226 0001387 106.3908 253.7245 15.30197309273926
STARLINK-2147           
1 47736U 21017Q   26042.90014982  .00009757  00000+0  67256-3 0  9991
2 47736  53.0532 317.3895 0001122  99.6984 260.4132 15.06422989274034
STARLINK-2150           
1 47739U 21017T   26042.91668981 -.00001002  00000+0 -21697-4 0  9996
2 47739  53.1607 338.9427 0001398  96.8538  75.2556 15.30205091  5786
STARLINK-2156           
1 47742U 21017W   26042.95399268  .00014236  00000+0  49183-3 0  9993
2 47742  53.1590 313.7201 0001477  97.8842 262.2327 15.30202305274090
STARLINK-2159           
1 47745U 21017Z   26041.07021858  .00005883  00000+0  20539-3 0  9997
2 47745  53.1616 332.9028 0001313  83.2607 276.8544 15.31023669273602
STARLINK-2160           
1 47746U 21017AA  26042.91915587  .00003796  00000+0  14023-3 0  9995
2 47746  53.1593 323.9417 0001158 109.0593 251.0533 15.30193583273882
STARLINK-2161           
1 47747U 21017AB  26042.94761824 -.00004535  00000+0 -14116-3 0  9999
2 47747  53.1603 313.4601 0001421 107.9710 252.1445 15.30185415274076
STARLINK-2162           
1 47748U 21017AC  26042.90015690  .00003258  00000+0  12210-3 0  9991
2 47748  53.1589 313.2960 0001388 105.9206 254.1948 15.30190552274041
STARLINK-2163           
1 47749U 21017AD  26042.94070085  .00009142  00000+0  31219-3 0  9993
2 47749  53.1618 314.0064 0001169 104.9819 255.1312 15.31047679274032
STARLINK-2164           
1 47750U 21017AE  26042.89489182  .00007499  00000+0  26499-3 0  9998
2 47750  53.1595 313.3363 0001216 105.1363 254.9773 15.30209815274042
STARLINK-2169           
1 47752U 21017AG  26042.91668981  .00012485  00000+0  73263-3 0  9991
2 47752  53.0775 322.2045 0001288  98.3596   7.5906 15.12103577  5780
STARLINK-2170           
1 47753U 21017AH  26042.18799656 -.00000251  00000+0  36443-5 0  9995
2 47753  53.1606 326.9984 0000950  85.2609 274.8501 15.30191143273832
STARLINK-2171           
1 47754U 21017AJ  26042.91668981  .00129590  00000+0  13438-2 0  9996
2 47754  53.0461 295.5101 0009246  90.1709 225.4746 15.63728435  5928
STARLINK-2178           
1 47760U 21017AQ  26042.91668981  .00731008  00000+0  25697-1 0  9995
2 47760  53.1449 336.3835 0001624  98.7108 316.8848 15.26545127  5774
STARLINK-2180           
1 47762U 21017AS  26042.92132255  .00008444  00000+0  29685-3 0  9992
2 47762  53.1613 339.0020 0001474  62.1686 297.9464 15.30204160273701
